start=new Date('2022-03-20T00:00:00.000Z').valueOf();
sats=[{"GP_ID":"199189304","OBJECT_ID":"2022-016Y","SEMIMAJOR_AXIS":"6727.719","RA_OF_ASC_NODE":"9.3118","REV_AT_EPOCH":"372","INCLINATION":"53.2178","MEAN_MOTION_DOT":"-0.00088303","ARG_OF_PERICENTER":"95.7501","EPOCH":"2022-03-19T22:00:01.999584","PERIAPSIS":"349.040","MEAN_ANOMALY":"159.0095","TIME_SYSTEM":"UTC","CENTER_NAME":"EARTH","BSTAR":"-0.00062973000000","OBJECT_TYPE":"PAYLOAD","FILE":"3366144","RCS_SIZE":"MEDIUM","CLASSIFICATION_TYPE":"U","OBJECT_NAME":"STARLINK-3447","DECAY_DATE":null,"COUNTRY_CODE":"US","MEAN_MOTION_DDOT":"0.0000000000000","PERIOD":"91.530","LAUNCH_DATE":"2022-02-21","MEAN_MOTION":"15.73261649","APOAPSIS":"350.129","ELEMENT_SET_NO":"999","MEAN_ELEMENT_THEORY":"SGP4","TLE_LINE2":"2 51736  53.2178   9.3118 0000809  95.7501 159.0095 15.73261649  3721","NORAD_CAT_ID":"51736","TLE_LINE1":"1 51736U 22016Y   22078.91668981 -.00088303  00000-0 -62973-3 0  9994","REF_FRAME":"TEME","ECCENTRICITY":"0.00008090","EPHEMERIS_TYPE":"0","SITE":"AFETR"},{"APOAPSIS":"350.185","ELEMENT_SET_NO":"999","LAUNCH_DATE":"2022-02-21","MEAN_MOTION":"15.73276650","TLE_LINE2":"2 51737  53.2198   9.3146 0000956 109.0680 143.7281 15.73276650  3720","MEAN_ELEMENT_THEORY":"SGP4","TLE_LINE1":"1 51737U 22016Z   22078.91668981 -.00093422  00000-0 -66646-3 0  9994","NORAD_CAT_ID":"51737","REF_FRAME":"TEME","ECCENTRICITY":"0.00009560","EPHEMERIS_TYPE":"0","SITE":"AFETR","TIME_SYSTEM":"UTC","CENTER_NAME":"EARTH","BSTAR":"-0.00066646000000","FILE":"3366144","RCS_SIZE":"LARGE","OBJECT_TYPE":"PAYLOAD","DECAY_DATE":null,"MEAN_MOTION_DDOT":"0.0000000000000","COUNTRY_CODE":"US","CLASSIFICATION_TYPE":"U","OBJECT_NAME":"STARLINK-3509","PERIOD":"91.529","RA_OF_ASC_NODE":"9.3146","REV_AT_EPOCH":"372","INCLINATION":"53.2198","MEAN_MOTION_DOT":"-0.00093422","EPOCH":"2022-03-19T22:00:01.999584","PERIAPSIS":"348.898","ARG_OF_PERICENTER":"109.0680","MEAN_ANOMALY":"143.7281","GP_ID":"199189584","OBJECT_ID":"2022-016Z","SEMIMAJOR_AXIS":"6727.677"},{"FILE":"3366144","RCS_SIZE":"LARGE","OBJECT_TYPE":"PAYLOAD","PERIOD":"91.532","COUNTRY_CODE":"US","DECAY_DATE":null,"MEAN_MOTION_DDOT":"0.0000000000000","CLASSIFICATION_TYPE":"U","OBJECT_NAME":"STARLINK-3515","CENTER_NAME":"EARTH","TIME_SYSTEM":"UTC","BSTAR":"0.00014152000000","ECCENTRICITY":"0.00011600","REF_FRAME":"TEME","SITE":"AFETR","EPHEMERIS_TYPE":"0","TLE_LINE2":"2 51738  53.2180   9.3093 0001160  99.0446 156.9220 15.73217427  3725","MEAN_ELEMENT_THEORY":"SGP4","ELEMENT_SET_NO":"999","APOAPSIS":"350.491","LAUNCH_DATE":"2022-02-21","MEAN_MOTION":"15.73217427","TLE_LINE1":"1 51738U 22016AA  22078.91668981  .00019302  00000-0  14152-3 0  9993","NORAD_CAT_ID":"51738","GP_ID":"199188837","SEMIMAJOR_AXIS":"6727.845","OBJECT_ID":"2022-016AA","PERIAPSIS":"348.930","EPOCH":"2022-03-19T22:00:01.999584","ARG_OF_PERICENTER":"99.0446","MEAN_MOTION_DOT":"0.00019302","MEAN_ANOMALY":"156.9220","RA_OF_ASC_NODE":"9.3093","INCLINATION":"53.2180","REV_AT_EPOCH":"372"},{"SEMIMAJOR_AXIS":"6727.686","OBJECT_ID":"2022-016AB","GP_ID":"199189415","MEAN_ANOMALY":"163.5742","ARG_OF_PERICENTER":"90.5039","PERIAPSIS":"348.908","EPOCH":"2022-03-19T22:00:01.999584","MEAN_MOTION_DOT":"-0.00074755","INCLINATION":"53.2177","REV_AT_EPOCH":"372","RA_OF_ASC_NODE":"9.3123","PERIOD":"91.529","CLASSIFICATION_TYPE":"U","OBJECT_NAME":"STARLINK-3516","DECAY_DATE":null,"MEAN_MOTION_DDOT":"0.0000000000000","COUNTRY_CODE":"US","FILE":"3366144","OBJECT_TYPE":"PAYLOAD","RCS_SIZE":"MEDIUM","BSTAR":"-0.00053130000000","CENTER_NAME":"EARTH","TIME_SYSTEM":"UTC","SITE":"AFETR","EPHEMERIS_TYPE":"0","ECCENTRICITY":"0.00009560","REF_FRAME":"TEME","NORAD_CAT_ID":"51739","TLE_LINE1":"1 51739U 22016AB  22078.91668981 -.00074755  00000-0 -53130-3 0  9998","TLE_LINE2":"2 51739  53.2177   9.3123 0000956  90.5039 163.5742 15.73273286  3720","MEAN_ELEMENT_THEORY":"SGP4","LAUNCH_DATE":"2022-02-21","MEAN_MOTION":"15.73273286","APOAPSIS":"350.194","ELEMENT_SET_NO":"999"},{"MEAN_MOTION_DOT":"0.00022795","ARG_OF_PERICENTER":"99.7003","EPOCH":"2022-03-19T22:00:01.999584","PERIAPSIS":"349.060","MEAN_ANOMALY":"158.2000","RA_OF_ASC_NODE":"9.3056","REV_AT_EPOCH":"372","INCLINATION":"53.2177","GP_ID":"199188948","OBJECT_ID":"2022-016AC","SEMIMAJOR_AXIS":"6727.966","REF_FRAME":"TEME","ECCENTRICITY":"0.00011460","EPHEMERIS_TYPE":"0","SITE":"AFETR","MEAN_MOTION":"15.73174994","LAUNCH_DATE":"2022-02-21","APOAPSIS":"350.602","ELEMENT_SET_NO":"999","MEAN_ELEMENT_THEORY":"SGP4","TLE_LINE2":"2 51740  53.2177   9.3056 0001146  99.7003 158.2000 15.73174994  3725","NORAD_CAT_ID":"51740","TLE_LINE1":"1 51740U 22016AC  22078.91668981  .00022795  00000-0  16657-3 0  9998","RCS_SIZE":"LARGE","FILE":"3366144","OBJECT_TYPE":"PAYLOAD","OBJECT_NAME":"STARLINK-3500","CLASSIFICATION_TYPE":"U","DECAY_DATE":null,"MEAN_MOTION_DDOT":"0.0000000000000","COUNTRY_CODE":"US","PERIOD":"91.535","TIME_SYSTEM":"UTC","CENTER_NAME":"EARTH","BSTAR":"0.00016657000000"},{"RCS_SIZE":"LARGE","FILE":"3366144","OBJECT_TYPE":"PAYLOAD","PERIOD":"91.531","CLASSIFICATION_TYPE":"U","OBJECT_NAME":"STARLINK-3520","COUNTRY_CODE":"US","DECAY_DATE":null,"MEAN_MOTION_DDOT":"0.0000000000000","CENTER_NAME":"EARTH","TIME_SYSTEM":"UTC","BSTAR":"-0.00014314000000","ECCENTRICITY":"0.00010570","REF_FRAME":"TEME","SITE":"AFETR","EPHEMERIS_TYPE":"0","MEAN_ELEMENT_THEORY":"SGP4","TLE_LINE2":"2 51741  53.2175   9.3097 0001057 103.6377 151.7045 15.73241293  3723","MEAN_MOTION":"15.73241293","LAUNCH_DATE":"2022-02-21","APOAPSIS":"350.354","ELEMENT_SET_NO":"999","NORAD_CAT_ID":"51741","TLE_LINE1":"1 51741U 22016AD  22078.91668981 -.00020694  00000-0 -14314-3 0  9995","GP_ID":"199189500","SEMIMAJOR_AXIS":"6727.777","OBJECT_ID":"2022-016AD","ARG_OF_PERICENTER":"103.6377","PERIAPSIS":"348.931","EPOCH":"2022-03-19T22:00:01.999584","MEAN_MOTION_DOT":"-0.00020694","MEAN_ANOMALY":"151.7045","RA_OF_ASC_NODE":"9.3097","INCLINATION":"53.2175","REV_AT_EPOCH":"372"},{"OBJECT_ID":"2022-016AE","SEMIMAJOR_AXIS":"6727.988","GP_ID":"199189195","REV_AT_EPOCH":"372","INCLINATION":"53.2179","RA_OF_ASC_NODE":"9.3044","MEAN_ANOMALY":"157.8826","MEAN_MOTION_DOT":"0.00019983","EPOCH":"2022-03-19T22:00:01.999584","PERIAPSIS":"349.289","ARG_OF_PERICENTER":"100.6901","BSTAR":"0.00014666000000","TIME_SYSTEM":"UTC","CENTER_NAME":"EARTH","MEAN_MOTION_DDOT":"0.0000000000000","DECAY_DATE":null,"COUNTRY_CODE":"US","OBJECT_NAME":"STARLINK-3521","CLASSIFICATION_TYPE":"U","PERIOD":"91.535","FILE":"3366144","OBJECT_TYPE":"PAYLOAD","RCS_SIZE":"LARGE","TLE_LINE1":"1 51742U 22016AE  22078.91668981  .00019983  00000-0  14666-3 0  9993","NORAD_CAT_ID":"51742","ELEMENT_SET_NO":"999","APOAPSIS":"350.417","MEAN_MOTION":"15.73167438","LAUNCH_DATE":"2022-02-21","TLE_LINE2":"2 51742  53.2179   9.3044 0000838 100.6901 157.8826 15.73167438  3728","MEAN_ELEMENT_THEORY":"SGP4","EPHEMERIS_TYPE":"0","SITE":"AFETR","REF_FRAME":"TEME","ECCENTRICITY":"0.00008380"},{"CLASSIFICATION_TYPE":"U","OBJECT_NAME":"STARLINK-3512","DECAY_DATE":null,"COUNTRY_CODE":"US","MEAN_MOTION_DDOT":"0.0000000000000","PERIOD":"91.530","OBJECT_TYPE":"PAYLOAD","FILE":"3366144","RCS_SIZE":"LARGE","BSTAR":"-0.00026963000000","TIME_SYSTEM":"UTC","CENTER_NAME":"EARTH","EPHEMERIS_TYPE":"0","SITE":"AFETR","REF_FRAME":"TEME","ECCENTRICITY":"0.00010190","NORAD_CAT_ID":"51743","TLE_LINE1":"1 51743U 22016AF  22078.91668981 -.00038383  00000-0 -26963-3 0  9994","MEAN_MOTION":"15.73259031","LAUNCH_DATE":"2022-02-21","ELEMENT_SET_NO":"999","APOAPSIS":"350.277","MEAN_ELEMENT_THEORY":"SGP4","TLE_LINE2":"2 51743  53.2174   9.3073 0001019 115.3067 141.3073 15.73259031  3727","OBJECT_ID":"2022-016AF","SEMIMAJOR_AXIS":"6727.727","GP_ID":"199189058","MEAN_ANOMALY":"141.3073","MEAN_MOTION_DOT":"-0.00038383","ARG_OF_PERICENTER":"115.3067","EPOCH":"2022-03-19T22:00:01.999584","PERIAPSIS":"348.906","REV_AT_EPOCH":"372","INCLINATION":"53.2174","RA_OF_ASC_NODE":"9.3073"},{"RA_OF_ASC_NODE":"9.3019","REV_AT_EPOCH":"372","INCLINATION":"53.2179","MEAN_MOTION_DOT":"0.00022351","ARG_OF_PERICENTER":"114.4481","EPOCH":"2022-03-19T22:00:01.999584","PERIAPSIS":"348.894","MEAN_ANOMALY":"145.3999","GP_ID":"199189305","OBJECT_ID":"2022-016AG","SEMIMAJOR_AXIS":"6727.856","MEAN_MOTION":"15.73213568","LAUNCH_DATE":"2022-02-21","APOAPSIS":"350.549","ELEMENT_SET_NO":"999","MEAN_ELEMENT_THEORY":"SGP4","TLE_LINE2":"2 51744  53.2179   9.3019 0001230 114.4481 145.3999 15.73213568  3724","NORAD_CAT_ID":"51744","TLE_LINE1":"1 51744U 22016AG  22078.91668981  .00022351  00000-0  16315-3 0  9991","REF_FRAME":"TEME","ECCENTRICITY":"0.00012300","EPHEMERIS_TYPE":"0","SITE":"AFETR","TIME_SYSTEM":"UTC","CENTER_NAME":"EARTH","BSTAR":"0.00016315000000","RCS_SIZE":"LARGE","FILE":"3366144","OBJECT_TYPE":"PAYLOAD","CLASSIFICATION_TYPE":"U","OBJECT_NAME":"STARLINK-3452","DECAY_DATE":null,"MEAN_MOTION_DDOT":"0.0000000000000","COUNTRY_CODE":"US","PERIOD":"91.532"},{"SEMIMAJOR_AXIS":"6727.670","OBJECT_ID":"2022-016AH","GP_ID":"199189585","MEAN_ANOMALY":"157.1763","ARG_OF_PERICENTER":"100.0888","EPOCH":"2022-03-19T22:00:01.999584","PERIAPSIS":"348.724","MEAN_MOTION_DOT":"-0.00091073","INCLINATION":"53.2178","REV_AT_EPOCH":"372","RA_OF_ASC_NODE":"9.3064","PERIOD":"91.529","OBJECT_NAME":"STARLINK-3449","CLASSIFICATION_TYPE":"U","DECAY_DATE":null,"MEAN_MOTION_DDOT":"0.0000000000000","COUNTRY_CODE":"US","RCS_SIZE":"LARGE","FILE":"3366144","OBJECT_TYPE":"PAYLOAD","BSTAR":"-0.00064932000000","CENTER_NAME":"EARTH","TIME_SYSTEM":"UTC","SITE":"AFETR","EPHEMERIS_TYPE":"0","ECCENTRICITY":"0.00012050","REF_FRAME":"TEME","NORAD_CAT_ID":"51745","TLE_LINE1":"1 51745U 22016AH  22078.91668981 -.00091073  00000-0 -64932-3 0  9999","TLE_LINE2":"2 51745  53.2178   9.3064 0001205 100.0888 157.1763 15.73279142  3728","MEAN_ELEMENT_THEORY":"SGP4","MEAN_MOTION":"15.73279142","LAUNCH_DATE":"2022-02-21","ELEMENT_SET_NO":"999","APOAPSIS":"350.345"}];
